{
    "links": {
        "self": "http://www.neowsapp.com/rest/v1/neo/3791302?api_key=iIulBulltgU6a56xZRHN4H3l9WmuAYTsLGpBGhQ2"
    },
    "id": "3791302",
    "neo_reference_id": "3791302",
    "name": "(2017 XU2)",
    "designation": "2017 XU2",
    "nasa_jpl_url": "http://ssd.jpl.nasa.gov/sbdb.cgi?sstr=3791302",
    "absolute_magnitude_h": 21.7,
    "estimated_diameter": {
        "kilometers": {
            "estimated_diameter_min": 0.1214940408,
            "estimated_diameter_max": 0.2716689341
        },
        "meters": {
            "estimated_diameter_min": 121.4940407996,
            "estimated_diameter_max": 271.6689340891
        },
        "miles": {
            "estimated_diameter_min": 0.0754928736,
            "estimated_diameter_max": 0.1688071972
        },
        "feet": {
            "estimated_diameter_min": 398.6025088171,
            "estimated_diameter_max": 891.3023057169
        }
    },
    "is_potentially_hazardous_asteroid": false,
    "close_approach_data": [
        {
            "close_approach_date": "2008-05-12",
            "close_approach_date_full": "2008-May-12 17:29",
            "epoch_date_close_approach": 1210613340000,
            "relative_velocity": {
                "kilometers_per_second": "31.5550786064",
                "kilometers_per_hour": "113598.2829829831",
                "miles_per_hour": "70585.5553346208"
            },
            "miss_distance": {
                "astronomical": "0.4970542348",
                "lunar": "193.3540973372",
                "kilometers": "74358254.800559876",
                "miles": "46204077.0215472488"
            },
            "orbiting_body": "Earth"
        },
        {
            "close_approach_date": "2017-11-29",
            "close_approach_date_full": "2017-Nov-29 10:32",
            "epoch_date_close_approach": 1511951520000,
            "relative_velocity": {
                "kilometers_per_second": "14.9533547569",
                "kilometers_per_hour": "53832.0771248303",
                "miles_per_hour": "33449.1592557036"
            },
            "miss_distance": {
                "astronomical": "0.1557816438",
                "lunar": "60.5990594382",
                "kilometers": "23304602.097578706",
                "miles": "14480808.2594339028"
            },
            "orbiting_body": "Earth"
        },
        {
            "close_approach_date": "2019-07-30",
            "close_approach_date_full": "2019-Jul-30 11:26",
            "epoch_date_close_approach": 1564485960000,
            "relative_velocity": {
                "kilometers_per_second": "15.1404350359",
                "kilometers_per_hour": "54505.5661291666",
                "miles_per_hour": "33867.6391317591"
            },
            "miss_distance": {
                "astronomical": "0.3243975085",
                "lunar": "126.1906308065",
                "kilometers": "48529176.304906895",
                "miles": "30154631.867009351"
            },
            "orbiting_body": "Earth"
        }
    ],
    "orbital_data": {
        "orbit_id": "4",
        "orbit_determination_date": "2018-01-05 06:21:14",
        "first_observation_date": "2017-12-11",
        "last_observation_date": "2018-01-05",
        "data_arc_in_days": 25,
        "observations_used": 54,
        "orbit_uncertainty": "7",
        "minimum_orbit_intersection": ".133924",
        "jupiter_tisserand_invariant": "4.317",
        "epoch_osculation": "2459000.5",
        "eccentricity": ".5764749004836386",
        "semi_major_axis": "1.510607354197875",
        "inclination": "7.819219970928671",
        "ascending_node_longitude": "340.033381290085",
        "orbital_period": "678.1500824310556",
        "perihelion_distance": ".6397801300168026",
        "perihelion_argument": "5.839744002813591",
        "aphelion_distance": "2.381434578378948",
        "perihelion_time": "2458716.652900702909",
        "mean_anomaly": "150.6819189354613",
        "mean_motion": ".530855940781515",
        "equinox": "J2000",
        "orbit_class": {
            "orbit_class_type": "APO",
            "orbit_class_description": "Near-Earth asteroid orbits which cross the Earth’s orbit similar to that of 1862 Apollo",
            "orbit_class_range": "a (semi-major axis) > 1.0 AU; q (perihelion) < 1.017 AU"
        }
    },
    "is_sentry_object": false
}